ONEWEB-0416             
1 51625U 22012D   25333.57551819  .00000373  00000+0  10324-2 0  9997
2 51625  87.8809  76.0812 0001555 102.7968 257.3334 13.10375583183188
ONEWEB-0422             
1 51626U 22012E   25333.74308696 -.00000035  00000+0 -12341-3 0  9999
2 51626  87.9135  45.5059 0002491  99.1624 260.9789 13.17648196187542
ONEWEB-0423             
1 51627U 22012F   25333.73633645 -.00000024  00000+0 -94977-4 0  9998
2 51627  87.9134  45.5169 0001881 102.9676 257.1666 13.17647956187439
ONEWEB-0425             
1 51628U 22012G   25333.81455499  .00000642  00000+0  18015-2 0  9998
2 51628  87.8818  76.0042 0001498 115.9659 244.1623 13.10372664183211
ONEWEB-0428             
1 51629U 22012H   25333.79461132 -.00000594  00000+0 -17387-2 0  9996
2 51629  87.8814  76.0273 0001714 103.4836 256.6482 13.10376243183177
ONEWEB-0431             
1 51630U 22012J   25333.30645172 -.00000228  00000+0 -68822-3 0  9998
2 51630  87.8822  76.1038 0001823  83.1296 277.0039 13.10369341183168
ONEWEB-0434             
1 51631U 22012K   25333.81787218  .00000667  00000+0  18751-2 0  9993
2 51631  87.8812  76.0386 0001531 126.5237 233.6031 13.10372615183210
ONEWEB-0435             
1 51632U 22012L   25333.82617303  .00000447  00000+0  12429-2 0  9994
2 51632  87.8808  76.0273 0002070 102.3689 257.7670 13.10369742183205
