{
  "type": "FeatureCollection",
  "features": [
    {
      "type": "Feature",
      "properties": {
        "OBJECT_NAME": "ONEWEB-0416",
        "OBJECT_ID": "2022-012D",
        "EPOCH": "2025-11-29T13:48:44.771616",
        "MEAN_MOTION": 13.10375583,
        "ECCENTRICITY": 0.0001555,
        "INCLINATION": 87.8809,
        "RA_OF_ASC_NODE": 76.0812,
        "ARG_OF_PERICENTER": 102.7968,
        "MEAN_ANOMALY": 257.3334,
        "EPHEMERIS_TYPE": 0,
        "CLASSIFICATION_TYPE": "U",
        "NORAD_CAT_ID": 51625,
        "ELEMENT_SET_NO": 999,
        "REV_AT_EPOCH": 18318,
        "BSTAR": 0.0010324,
        "MEAN_MOTION_DOT": 3.73e-06,
        "MEAN_MOTION_DDOT": 0,
        "norad_id": 51625,
        "name": "ONEWEB-0416",
        "group": "active",
        "longitude_deg": NaN,
        "latitude_deg": NaN,
        "alt_km": NaN,
        "orbit_class": "HEO",
        "timestamp": "2025-11-30T05:40:21.634811+00:00"
      },
      "geometry": {
        "type": "Point",
        "coordinates": [
          NaN,
          NaN
        ]
      }
    },
    {
      "type": "Feature",
      "properties": {
        "OBJECT_NAME": "ONEWEB-0422",
        "OBJECT_ID": "2022-012E",
        "EPOCH": "2025-11-29T17:50:02.713344",
        "MEAN_MOTION": 13.17648196,
        "ECCENTRICITY": 0.0002491,
        "INCLINATION": 87.9135,
        "RA_OF_ASC_NODE": 45.5059,
        "ARG_OF_PERICENTER": 99.1624,
        "MEAN_ANOMALY": 260.9789,
        "EPHEMERIS_TYPE": 0,
        "CLASSIFICATION_TYPE": "U",
        "NORAD_CAT_ID": 51626,
        "ELEMENT_SET_NO": 999,
        "REV_AT_EPOCH": 18754,
        "BSTAR": -0.00012341,
        "MEAN_MOTION_DOT": -3.5e-07,
        "MEAN_MOTION_DDOT": 0,
        "norad_id": 51626,
        "name": "ONEWEB-0422",
        "group": "active",
        "longitude_deg": NaN,
        "latitude_deg": NaN,
        "alt_km": NaN,
        "orbit_class": "HEO",
        "timestamp": "2025-11-30T05:40:21.634817+00:00"
      },
      "geometry": {
        "type": "Point",
        "coordinates": [
          NaN,
          NaN
        ]
      }
    },
    {
      "type": "Feature",
      "properties": {
        "OBJECT_NAME": "ONEWEB-0423",
        "OBJECT_ID": "2022-012F",
        "EPOCH": "2025-11-29T17:40:19.469280",
        "MEAN_MOTION": 13.17647956,
        "ECCENTRICITY": 0.0001881,
        "INCLINATION": 87.9134,
        "RA_OF_ASC_NODE": 45.5169,
        "ARG_OF_PERICENTER": 102.9676,
        "MEAN_ANOMALY": 257.1666,
        "EPHEMERIS_TYPE": 0,
        "CLASSIFICATION_TYPE": "U",
        "NORAD_CAT_ID": 51627,
        "ELEMENT_SET_NO": 999,
        "REV_AT_EPOCH": 18743,
        "BSTAR": -9.4977e-05,
        "MEAN_MOTION_DOT": -2.4e-07,
        "MEAN_MOTION_DDOT": 0,
        "norad_id": 51627,
        "name": "ONEWEB-0423",
        "group": "active",
        "longitude_deg": NaN,
        "latitude_deg": NaN,
        "alt_km": NaN,
        "orbit_class": "HEO",
        "timestamp": "2025-11-30T05:40:21.634823+00:00"
      },
      "geometry": {
        "type": "Point",
        "coordinates": [
          NaN,
          NaN
        ]
      }
    },
    {
      "type": "Feature",
      "properties": {
        "OBJECT_NAME": "ONEWEB-0425",
        "OBJECT_ID": "2022-012G",
        "EPOCH": "2025-11-29T19:32:57.551136",
        "MEAN_MOTION": 13.10372664,
        "ECCENTRICITY": 0.0001498,
        "INCLINATION": 87.8818,
        "RA_OF_ASC_NODE": 76.0042,
        "ARG_OF_PERICENTER": 115.9659,
        "MEAN_ANOMALY": 244.1623,
        "EPHEMERIS_TYPE": 0,
        "CLASSIFICATION_TYPE": "U",
        "NORAD_CAT_ID": 51628,
        "ELEMENT_SET_NO": 999,
        "REV_AT_EPOCH": 18321,
        "BSTAR": 0.0018015,
        "MEAN_MOTION_DOT": 6.42e-06,
        "MEAN_MOTION_DDOT": 0,
        "norad_id": 51628,
        "name": "ONEWEB-0425",
        "group": "active",
        "longitude_deg": NaN,
        "latitude_deg": NaN,
        "alt_km": NaN,
        "orbit_class": "HEO",
        "timestamp": "2025-11-30T05:40:21.634829+00:00"
      },
      "geometry": {
        "type": "Point",
        "coordinates": [
          NaN,
          NaN
        ]
      }
    },
    {
      "type": "Feature",
      "properties": {
        "OBJECT_NAME": "ONEWEB-0428",
        "OBJECT_ID": "2022-012H",
        "EPOCH": "2025-11-29T19:04:14.418048",
        "MEAN_MOTION": 13.10376243,
        "ECCENTRICITY": 0.0001714,
        "INCLINATION": 87.8814,
        "RA_OF_ASC_NODE": 76.0273,
        "ARG_OF_PERICENTER": 103.4836,
        "MEAN_ANOMALY": 256.6482,
        "EPHEMERIS_TYPE": 0,
        "CLASSIFICATION_TYPE": "U",
        "NORAD_CAT_ID": 51629,
        "ELEMENT_SET_NO": 999,
        "REV_AT_EPOCH": 18317,
        "BSTAR": -0.0017387,
        "MEAN_MOTION_DOT": -5.94e-06,
        "MEAN_MOTION_DDOT": 0,
        "norad_id": 51629,
        "name": "ONEWEB-0428",
        "group": "active",
        "longitude_deg": NaN,
        "latitude_deg": NaN,
        "alt_km": NaN,
        "orbit_class": "HEO",
        "timestamp": "2025-11-30T05:40:21.634835+00:00"
      },
      "geometry": {
        "type": "Point",
        "coordinates": [
          NaN,
          NaN
        ]
      }
    },
    {
      "type": "Feature",
      "properties": {
        "OBJECT_NAME": "ONEWEB-0431",
        "OBJECT_ID": "2022-012J",
        "EPOCH": "2025-11-29T07:21:17.428608",
        "MEAN_MOTION": 13.10369341,
        "ECCENTRICITY": 0.00018237,
        "INCLINATION": 87.8822,
        "RA_OF_ASC_NODE": 76.1038,
        "ARG_OF_PERICENTER": 83.1296,
        "MEAN_ANOMALY": 277.0039,
        "EPHEMERIS_TYPE": 0,
        "CLASSIFICATION_TYPE": "U",
        "NORAD_CAT_ID": 51630,
        "ELEMENT_SET_NO": 999,
        "REV_AT_EPOCH": 18316,
        "BSTAR": -0.00068821615,
        "MEAN_MOTION_DOT": -2.28e-06,
        "MEAN_MOTION_DDOT": 0,
        "norad_id": 51630,
        "name": "ONEWEB-0431",
        "group": "active",
        "longitude_deg": NaN,
        "latitude_deg": NaN,
        "alt_km": NaN,
        "orbit_class": "HEO",
        "timestamp": "2025-11-30T05:40:21.634841+00:00"
      },
      "geometry": {
        "type": "Point",
        "coordinates": [
          NaN,
          NaN
        ]
      }
    },
    {
      "type": "Feature",
      "properties": {
        "OBJECT_NAME": "ONEWEB-0434",
        "OBJECT_ID": "2022-012K",
        "EPOCH": "2025-11-29T19:37:44.156352",
        "MEAN_MOTION": 13.10372615,
        "ECCENTRICITY": 0.0001531,
        "INCLINATION": 87.8812,
        "RA_OF_ASC_NODE": 76.0386,
        "ARG_OF_PERICENTER": 126.5237,
        "MEAN_ANOMALY": 233.6031,
        "EPHEMERIS_TYPE": 0,
        "CLASSIFICATION_TYPE": "U",
        "NORAD_CAT_ID": 51631,
        "ELEMENT_SET_NO": 999,
        "REV_AT_EPOCH": 18321,
        "BSTAR": 0.0018751,
        "MEAN_MOTION_DOT": 6.67e-06,
        "MEAN_MOTION_DDOT": 0,
        "norad_id": 51631,
        "name": "ONEWEB-0434",
        "group": "active",
        "longitude_deg": NaN,
        "latitude_deg": NaN,
        "alt_km": NaN,
        "orbit_class": "HEO",
        "timestamp": "2025-11-30T05:40:21.634847+00:00"
      },
      "geometry": {
        "type": "Point",
        "coordinates": [
          NaN,
          NaN
        ]
      }
    },
    {
      "type": "Feature",
      "properties": {
        "OBJECT_NAME": "ONEWEB-0435",
        "OBJECT_ID": "2022-012L",
        "EPOCH": "2025-11-29T19:49:41.349792",
        "MEAN_MOTION": 13.10369742,
        "ECCENTRICITY": 0.000207,
        "INCLINATION": 87.8808,
        "RA_OF_ASC_NODE": 76.0273,
        "ARG_OF_PERICENTER": 102.3689,
        "MEAN_ANOMALY": 257.767,
        "EPHEMERIS_TYPE": 0,
        "CLASSIFICATION_TYPE": "U",
        "NORAD_CAT_ID": 51632,
        "ELEMENT_SET_NO": 999,
        "REV_AT_EPOCH": 18320,
        "BSTAR": 0.0012429,
        "MEAN_MOTION_DOT": 4.47e-06,
        "MEAN_MOTION_DDOT": 0,
        "norad_id": 51632,
        "name": "ONEWEB-0435",
        "group": "active",
        "longitude_deg": NaN,
        "latitude_deg": NaN,
        "alt_km": NaN,
        "orbit_class": "HEO",
        "timestamp": "2025-11-30T05:40:21.634856+00:00"
      },
      "geometry": {
        "type": "Point",
        "coordinates": [
          NaN,
          NaN
        ]
      }
    }
  ]
}